QIANFAN-49              
1 62250U 24232P   25298.92048373  .00000209  00000+0  30583-3 0  9992
2 62250  89.0036  46.0493 0013019 339.2985  20.7637 13.50982395 61380
QIANFAN-50              
1 62251U 24232Q   25298.94517488  .00000219  00000+0  32014-3 0  9995
2 62251  89.0041  46.0524 0014707 340.0072  20.0501 13.50983070 61412
QIANFAN-51              
1 62252U 24232R   25298.92874854  .00000208  00000+0  30397-3 0  9997
2 62252  89.0035  46.0509 0012318 345.1816  14.8973 13.50979755 61405
QIANFAN-52              
1 62253U 24232S   25298.95748331  .00000207  00000+0  30248-3 0  9995
2 62253  89.0032  45.9234 0014108 335.8171  24.2316 13.50982290 61498
QIANFAN-53              
1 62254U 24232T   25298.93703271  .00000208  00000+0  30407-3 0  9996
2 62254  89.0039  46.0264 0013024 337.5309  22.5271 13.50978013 61454
QIANFAN-54              
1 62255U 24232U   25298.90406289  .00000191  00000+0  27671-3 0  9993
2 62255  89.0031  45.7124 0002729  55.5541 304.5868 13.50980150 92952
QIANFAN-55              
1 62785U 25016A   25298.93023376  .00000042  00000+0  45914-4 0  9993
2 62785  88.9744 108.1466 0018749 123.7860 236.5080 13.50968778 40734
QIANFAN-56              
1 62786U 25016B   25298.94663443  .00000063  00000+0  78498-4 0  9996
2 62786  88.9717 107.9943 0017367 125.7509 234.5261 13.50977134 40789
